{
 "type": "FeatureCollection",
 "name": "wolfville-downtown-parking-2024-07-26",
 "source": "Town of Wolfville, Map 23A Downtown Parking, 2024-07-26 (georeferenced PDF)",
 "features": [
  {
   "type": "Feature",
   "geometry": {
    "type": "Polygon",
    "coordinates": [
     [
      [
       -64.3637687,
       45.0925276
      ],
      [
       -64.3638743,
       45.0925165
      ],
      [
       -64.3639037,
       45.0926307
      ],
      [
       -64.363685,
       45.0926562
      ],
      [
       -64.3636717,
       45.0926036
      ],
      [
       -64.3637858,
       45.092583
      ],
      [
       -64.3637687,
       45.0925276
      ]
     ]
    ]
   },
   "properties": {
    "kind": "area",
    "category": "1 Hr Parking",
    "name": "1 Hr Parking - Elm Avenue",
    "color": "#a4a233",
    "area_m2": 167,
    "street": "Elm Avenue",
    "street_distance_m": 8.5
   }
  },
  {
   "type": "Feature",
   "geometry": {
    "type": "Polygon",
    "coordinates": [
     [
      [
       -64.3597208,
       45.0926826
      ],
      [
       -64.3597354,
       45.0927247
      ],
      [
       -64.3597528,
       45.0927246
      ],
      [
       -64.3597215,
       45.092753
      ],
      [
       -64.3596898,
       45.0928101
      ],
      [
       -64.359685,
       45.0928547
      ],
      [
       -64.359711,
       45.0929462
      ],
      [
       -64.3597974,
       45.0930457
      ],
      [
       -64.3599129,
       45.0931034
      ],
      [
       -64.3599039,
       45.0932274
      ],
      [
       -64.359855,
       45.0932046
      ],
      [
       -64.3597589,
       45.0931231
      ],
      [
       -64.3596572,
       45.0929769
      ],
      [
       -64.3596293,
       45.0928912
      ],
      [
       -64.3596251,
       45.092807
      ],
      [
       -64.3596465,
       45.0927542
      ],
      [
       -64.3597208,
       45.0926826
      ]
     ]
    ]
   },
   "properties": {
    "kind": "area",
    "category": "3 Hr Parking",
    "name": "3 Hr Parking - Harbourside Drive (2)",
    "color": "#33a8a5",
    "area_m2": 380,
    "street": "Harbourside Drive",
    "street_distance_m": 4.2
   }
  },
  {
   "type": "Feature",
   "geometry": {
    "type": "Polygon",
    "coordinates": [
     [
      [
       -64.3623079,
       45.0924803
      ],
      [
       -64.3626753,
       45.0925106
      ],
      [
       -64.3629612,
       45.0925371
      ],
      [
       -64.362941,
       45.0925848
      ],
      [
       -64.3623195,
       45.0925276
      ],
      [
       -64.3622998,
       45.0925233
      ],
      [
       -64.3623079,
       45.0924803
      ]
     ]
    ]
   },
   "properties": {
    "kind": "area",
    "category": "3 Hr Parking",
    "name": "3 Hr Parking - Front Street (4)",
    "color": "#33a8a5",
    "area_m2": 266,
    "street": "Front Street",
    "street_distance_m": 35.0
   }
  },
  {
   "type": "Feature",
   "geometry": {
    "type": "Polygon",
    "coordinates": [
     [
      [
       -64.3632793,
       45.0921519
      ],
      [
       -64.3634543,
       45.0921315
      ],
      [
       -64.3635466,
       45.0921301
      ],
      [
       -64.3637374,
       45.092099
      ],
      [
       -64.3637912,
       45.0923207
      ],
      [
       -64.3637006,
       45.0923362
      ],
      [
       -64.3637096,
       45.0923758
      ],
      [
       -64.3634353,
       45.0924056
      ],
      [
       -64.3634109,
       45.0923336
      ],
      [
       -64.363311,
       45.0923472
      ],
      [
       -64.3632793,
       45.0921519
      ]
     ]
    ]
   },
   "properties": {
    "kind": "area",
    "category": "3 Hr Parking",
    "name": "3 Hr Parking - Front Street (1)",
    "color": "#33a8a5",
    "area_m2": 1007,
    "street": "Front Street",
    "street_distance_m": 8.3
   }
  },
  {
   "type": "Feature",
   "geometry": {
    "type": "Polygon",
    "coordinates": [
     [
      [
       -64.3598293,
       45.0927784
      ],
      [
       -64.3598849,
       45.0927741
      ],
      [
       -64.3599133,
       45.0929357
      ],
      [
       -64.3598573,
       45.0929387
      ],
      [
       -64.3598293,
       45.0927784
      ]
     ]
    ]
   },
   "properties": {
    "kind": "area",
    "category": "3 Hr Parking",
    "name": "3 Hr Parking - Harbourside Drive (1)",
    "color": "#33a8a5",
    "area_m2": 82,
    "street": "Harbourside Drive",
    "street_distance_m": 5.4
   }
  },
  {
   "type": "Feature",
   "geometry": {
    "type": "Polygon",
    "coordinates": [
     [
      [
       -64.3625975,
       45.0922181
      ],
      [
       -64.3629125,
       45.0921886
      ],
      [
       -64.3629445,
       45.0923551
      ],
      [
       -64.3626254,
       45.092375
      ],
      [
       -64.3625975,
       45.0922181
      ]
     ]
    ]
   },
   "properties": {
    "kind": "area",
    "category": "3 Hr Parking",
    "name": "3 Hr Parking - Front Street (3)",
    "color": "#33a8a5",
    "area_m2": 457,
    "street": "Front Street",
    "street_distance_m": 8.9
   }
  },
  {
   "type": "Feature",
   "geometry": {
    "type": "Polygon",
    "coordinates": [
     [
      [
       -64.3623734,
       45.0921234
      ],
      [
       -64.3636071,
       45.0919957
      ],
      [
       -64.3636133,
       45.0920118
      ],
      [
       -64.3623789,
       45.0921403
      ],
      [
       -64.3623734,
       45.0921234
      ]
     ]
    ]
   },
   "properties": {
    "kind": "area",
    "category": "3 Hr Parking",
    "name": "3 Hr Parking - Front Street (2)",
    "color": "#33a8a5",
    "area_m2": 199,
    "street": "Front Street",
    "street_distance_m": 1.9
   }
  },
  {
   "type": "Feature",
   "geometry": {
    "type": "Polygon",
    "coordinates": [
     [
      [
       -64.3608717,
       45.0920157
      ],
      [
       -64.3611612,
       45.0919848
      ],
      [
       -64.3612186,
       45.0921581
      ],
      [
       -64.36115,
       45.09217
      ],
      [
       -64.3611577,
       45.0922057
      ],
      [
       -64.3609315,
       45.092229
      ],
      [
       -64.3608717,
       45.0920157
      ]
     ]
    ]
   },
   "properties": {
    "kind": "area",
    "category": "3 Hr Parking",
    "name": "3 Hr Parking - Front Street (5)",
    "color": "#33a8a5",
    "area_m2": 545,
    "street": "Front Street",
    "street_distance_m": 6.6
   }
  },
  {
   "type": "Feature",
   "geometry": {
    "type": "Polygon",
    "coordinates": [
     [
      [
       -64.362809,
       45.0914434
      ],
      [
       -64.3632661,
       45.0913933
      ],
      [
       -64.3632827,
       45.091394
      ],
      [
       -64.3632882,
       45.0914109
      ],
      [
       -64.3628149,
       45.0914615
      ],
      [
       -64.362809,
       45.0914434
      ]
     ]
    ]
   },
   "properties": {
    "kind": "area",
    "category": "3 Hr Parking",
    "name": "3 Hr Parking - Main Street (3)",
    "color": "#33a8a5",
    "area_m2": 79,
    "street": "Main Street",
    "street_distance_m": 4.6
   }
  },
  {
   "type": "Feature",
   "geometry": {
    "type": "Polygon",
    "coordinates": [
     [
      [
       -64.3619317,
       45.0915265
      ],
      [
       -64.3624664,
       45.0914774
      ],
      [
       -64.362478,
       45.0914981
      ],
      [
       -64.3619385,
       45.0915473
      ],
      [
       -64.3619317,
       45.0915265
      ]
     ]
    ]
   },
   "properties": {
    "kind": "area",
    "category": "3 Hr Parking",
    "name": "3 Hr Parking - Main Street (4)",
    "color": "#33a8a5",
    "area_m2": 100,
    "street": "Main Street",
    "street_distance_m": 4.8
   }
  },
  {
   "type": "Feature",
   "geometry": {
    "type": "Polygon",
    "coordinates": [
     [
      [
       -64.3630353,
       45.0913434
      ],
      [
       -64.3632928,
       45.0913151
      ],
      [
       -64.363299,
       45.0913311
      ],
      [
       -64.36306,
       45.0913599
      ],
      [
       -64.3630397,
       45.0913598
      ],
      [
       -64.3630353,
       45.0913434
      ]
     ]
    ]
   },
   "properties": {
    "kind": "area",
    "category": "3 Hr Parking",
    "name": "3 Hr Parking - Main Street (2)",
    "color": "#33a8a5",
    "area_m2": 42,
    "street": "Main Street",
    "street_distance_m": 1.5
   }
  },
  {
   "type": "Feature",
   "geometry": {
    "type": "Polygon",
    "coordinates": [
     [
      [
       -64.3611795,
       45.0916138
      ],
      [
       -64.3615102,
       45.0915789
      ],
      [
       -64.3615191,
       45.0915973
      ],
      [
       -64.3611863,
       45.0916346
      ],
      [
       -64.3611795,
       45.0916138
      ]
     ]
    ]
   },
   "properties": {
    "kind": "area",
    "category": "3 Hr Parking",
    "name": "3 Hr Parking - Main Street (6)",
    "color": "#33a8a5",
    "area_m2": 63,
    "street": "Main Street",
    "street_distance_m": 5.5
   }
  },
  {
   "type": "Feature",
   "geometry": {
    "type": "Polygon",
    "coordinates": [
     [
      [
       -64.3633894,
       45.0907574
      ],
      [
       -64.3637256,
       45.0907305
      ],
      [
       -64.3638879,
       45.0911905
      ],
      [
       -64.3635932,
       45.091229
      ],
      [
       -64.3635769,
       45.0911906
      ],
      [
       -64.3635189,
       45.0911994
      ],
      [
       -64.3633894,
       45.0907574
      ]
     ]
    ]
   },
   "properties": {
    "kind": "area",
    "category": "3 Hr Parking",
    "name": "3 Hr Parking - Main Street (1)",
    "color": "#33a8a5",
    "area_m2": 1464,
    "street": "Main Street",
    "street_distance_m": 9.9
   }
  },
  {
   "type": "Feature",
   "geometry": {
    "type": "Polygon",
    "coordinates": [
     [
      [
       -64.3601428,
       45.0917174
      ],
      [
       -64.3610422,
       45.0916253
      ],
      [
       -64.3610538,
       45.0916459
      ],
      [
       -64.3601491,
       45.0917369
      ],
      [
       -64.3601428,
       45.0917174
      ]
     ]
    ]
   },
   "properties": {
    "kind": "area",
    "category": "3 Hr Parking",
    "name": "3 Hr Parking - Main Street (8)",
    "color": "#33a8a5",
    "area_m2": 162,
    "street": "Main Street",
    "street_distance_m": 4.6
   }
  },
  {
   "type": "Feature",
   "geometry": {
    "type": "Polygon",
    "coordinates": [
     [
      [
       -64.360742,
       45.0915758
      ],
      [
       -64.3614739,
       45.0914973
      ],
      [
       -64.3614801,
       45.0915134
      ],
      [
       -64.3607475,
       45.0915927
      ],
      [
       -64.360742,
       45.0915758
      ]
     ]
    ]
   },
   "properties": {
    "kind": "area",
    "category": "3 Hr Parking",
    "name": "3 Hr Parking - Main Street (7)",
    "color": "#33a8a5",
    "area_m2": 112,
    "street": "Main Street",
    "street_distance_m": 1.8
   }
  },
  {
   "type": "Feature",
   "geometry": {
    "type": "Polygon",
    "coordinates": [
     [
      [
       -64.3614898,
       45.0912374
      ],
      [
       -64.3618776,
       45.0912001
      ],
      [
       -64.3619101,
       45.0912878
      ],
      [
       -64.362033,
       45.0912677
      ],
      [
       -64.3620097,
       45.0911874
      ],
      [
       -64.3620214,
       45.0911848
      ],
      [
       -64.3621178,
       45.0911752
      ],
      [
       -64.3621483,
       45.0912598
      ],
      [
       -64.3622712,
       45.0912398
      ],
      [
       -64.3622487,
       45.0911586
      ],
      [
       -64.3624595,
       45.0911296
      ],
      [
       -64.3624744,
       45.0911963
      ],
      [
       -64.3624352,
       45.0912034
      ],
      [
       -64.3623594,
       45.0912466
      ],
      [
       -64.3623796,
       45.0913233
      ],
      [
       -64.3622246,
       45.0913459
      ],
      [
       -64.362208,
       45.0913452
      ],
      [
       -64.3622026,
       45.0913317
      ],
      [
       -64.3621665,
       45.0913335
      ],
      [
       -64.362143,
       45.0913209
      ],
      [
       -64.3621119,
       45.091326
      ],
      [
       -64.3621004,
       45.0913443
      ],
      [
       -64.3620634,
       45.0913613
      ],
      [
       -64.3615365,
       45.0914104
      ],
      [
       -64.3614898,
       45.0912374
      ]
     ]
    ]
   },
   "properties": {
    "kind": "area",
    "category": "3 Hr Parking",
    "name": "3 Hr Parking - Main Street (5)",
    "color": "#33a8a5",
    "area_m2": 1200,
    "street": "Main Street",
    "street_distance_m": 12.0
   }
  },
  {
   "type": "Feature",
   "geometry": {
    "type": "Polygon",
    "coordinates": [
     [
      [
       -64.3602021,
       45.0916325
      ],
      [
       -64.3605882,
       45.09159
      ],
      [
       -64.3606104,
       45.0915898
      ],
      [
       -64.3606155,
       45.0916053
      ],
      [
       -64.360208,
       45.0916507
      ],
      [
       -64.3602021,
       45.0916325
      ]
     ]
    ]
   },
   "properties": {
    "kind": "area",
    "category": "3 Hr Parking",
    "name": "3 Hr Parking - Main Street (9)",
    "color": "#33a8a5",
    "area_m2": 64,
    "street": "Main Street",
    "street_distance_m": 1.5
   }
  },
  {
   "type": "Feature",
   "geometry": {
    "type": "Polygon",
    "coordinates": [
     [
      [
       -64.3587101,
       45.0918571
      ],
      [
       -64.3591368,
       45.0918147
      ],
      [
       -64.3591426,
       45.0918295
      ],
      [
       -64.3587156,
       45.0918739
      ],
      [
       -64.3587101,
       45.0918571
      ]
     ]
    ]
   },
   "properties": {
    "kind": "area",
    "category": "3 Hr Parking",
    "name": "3 Hr Parking - Main Street (10)",
    "color": "#33a8a5",
    "area_m2": 63,
    "street": "Main Street",
    "street_distance_m": 4.9
   }
  },
  {
   "type": "Feature",
   "geometry": {
    "type": "Polygon",
    "coordinates": [
     [
      [
       -64.3591281,
       45.0910814
      ],
      [
       -64.359181,
       45.0910748
      ],
      [
       -64.35921,
       45.0911877
      ],
      [
       -64.3592467,
       45.0912173
      ],
      [
       -64.3593328,
       45.0912087
      ],
      [
       -64.3593731,
       45.0913444
      ],
      [
       -64.3594363,
       45.091408
      ],
      [
       -64.3594874,
       45.0914195
      ],
      [
       -64.3595924,
       45.0914126
      ],
      [
       -64.359608,
       45.0914963
      ],
      [
       -64.3595153,
       45.0915141
      ],
      [
       -64.3595305,
       45.0915876
      ],
      [
       -64.3594482,
       45.091599
      ],
      [
       -64.3593935,
       45.0914191
      ],
      [
       -64.3592631,
       45.091437
      ],
      [
       -64.3592438,
       45.0913628
      ],
      [
       -64.3591426,
       45.0913725
      ],
      [
       -64.3590725,
       45.0911213
      ],
      [
       -64.35913,
       45.0911112
      ],
      [
       -64.3591281,
       45.0910814
      ]
     ]
    ]
   },
   "properties": {
    "kind": "area",
    "category": "3 Hr Parking",
    "name": "3 Hr Parking - Gaspereau Avenue",
    "color": "#33a8a5",
    "area_m2": 756,
    "street": "Gaspereau Avenue",
    "street_distance_m": 13.5
   }
  },
  {
   "type": "Feature",
   "geometry": {
    "type": "Polygon",
    "coordinates": [
     [
      [
       -64.3577308,
       45.0908608
      ],
      [
       -64.357755,
       45.0908671
      ],
      [
       -64.3576795,
       45.0914186
      ],
      [
       -64.3576549,
       45.0914232
      ],
      [
       -64.3577308,
       45.0908608
      ]
     ]
    ]
   },
   "properties": {
    "kind": "area",
    "category": "3 Hr Parking",
    "name": "3 Hr Parking - Seaview Avenue",
    "color": "#33a8a5",
    "area_m2": 128,
    "street": "Seaview Avenue",
    "street_distance_m": 1.2
   }
  },
  {
   "type": "Feature",
   "geometry": {
    "type": "Polygon",
    "coordinates": [
     [
      [
       -64.3657169,
       45.0928373
      ],
      [
       -64.3662688,
       45.0928826
      ],
      [
       -64.3662785,
       45.0928858
      ],
      [
       -64.3662712,
       45.0929226
      ],
      [
       -64.3662644,
       45.0929285
      ],
      [
       -64.3657178,
       45.0928878
      ],
      [
       -64.3657077,
       45.0928833
      ],
      [
       -64.3657169,
       45.0928373
      ]
     ]
    ]
   },
   "properties": {
    "kind": "area",
    "category": "All Day Parking",
    "name": "All Day Parking - Dykeland Street (2)",
    "color": "#ea3e82",
    "area_m2": 229,
    "street": "Dykeland Street",
    "street_distance_m": 59.8
   }
  },
  {
   "type": "Feature",
   "geometry": {
    "type": "Polygon",
    "coordinates": [
     [
      [
       -64.3658031,
       45.0926987
      ],
      [
       -64.3662221,
       45.0927274
      ],
      [
       -64.3662091,
       45.0928151
      ],
      [
       -64.3657452,
       45.0927821
      ],
      [
       -64.3657455,
       45.0927711
      ],
      [
       -64.365821,
       45.0927567
      ],
      [
       -64.3658031,
       45.0926987
      ]
     ]
    ]
   },
   "properties": {
    "kind": "area",
    "category": "All Day Parking",
    "name": "All Day Parking - Dykeland Street (1)",
    "color": "#ea3e82",
    "area_m2": 330,
    "street": "Dykeland Street",
    "street_distance_m": 71.7
   }
  },
  {
   "type": "Feature",
   "geometry": {
    "type": "Polygon",
    "coordinates": [
     [
      [
       -64.3625124,
       45.092752
      ],
      [
       -64.362956,
       45.0927794
      ],
      [
       -64.36296,
       45.0928301
      ],
      [
       -64.362985,
       45.0928356
      ],
      [
       -64.3629762,
       45.0928917
      ],
      [
       -64.362949,
       45.0928941
      ],
      [
       -64.3629353,
       45.0929292
      ],
      [
       -64.3623221,
       45.0928946
      ],
      [
       -64.3623362,
       45.0928164
      ],
      [
       -64.3623931,
       45.0928071
      ],
      [
       -64.3624018,
       45.0928221
      ],
      [
       -64.3625248,
       45.092802
      ],
      [
       -64.3625124,
       45.092752
      ]
     ]
    ]
   },
   "properties": {
    "kind": "area",
    "category": "All Day Parking",
    "name": "All Day Parking - Front Street",
    "color": "#ea3e82",
    "area_m2": 738,
    "street": "Front Street",
    "street_distance_m": 66.9
   }
  },
  {
   "type": "Feature",
   "geometry": {
    "type": "Polygon",
    "coordinates": [
     [
      [
       -64.3648687,
       45.0913244
      ],
      [
       -64.3652884,
       45.0912722
      ],
      [
       -64.3653699,
       45.0912705
      ],
      [
       -64.3654831,
       45.0917398
      ],
      [
       -64.3650197,
       45.0918149
      ],
      [
       -64.3648687,
       45.0913244
      ]
     ]
    ]
   },
   "properties": {
    "kind": "area",
    "category": "All Day Parking",
    "name": "All Day Parking - Main Street (1)",
    "color": "#ea3e82",
    "area_m2": 2118,
    "street": "Main Street",
    "street_distance_m": 15.0
   }
  },
  {
   "type": "Feature",
   "geometry": {
    "type": "Polygon",
    "coordinates": [
     [
      [
       -64.3563639,
       45.0922594
      ],
      [
       -64.3565013,
       45.0922424
      ],
      [
       -64.3565288,
       45.0922557
      ],
      [
       -64.3568588,
       45.0922128
      ],
      [
       -64.3570062,
       45.0922024
      ],
      [
       -64.3574916,
       45.092186
      ],
      [
       -64.3575298,
       45.0923953
      ],
      [
       -64.3565454,
       45.0925321
      ],
      [
       -64.3565143,
       45.0925228
      ],
      [
       -64.3564761,
       45.0924915
      ],
      [
       -64.3564421,
       45.0924909
      ],
      [
       -64.3564239,
       45.0924706
      ],
      [
       -64.3563639,
       45.0922594
      ]
     ]
    ]
   },
   "properties": {
    "kind": "area",
    "category": "All Day Parking",
    "name": "All Day Parking - Main Street (2)",
    "color": "#ea3e82",
    "area_m2": 2493,
    "street": "Main Street",
    "street_distance_m": 38.5
   }
  },
  {
   "type": "Feature",
   "geometry": {
    "type": "Polygon",
    "coordinates": [
     [
      [
       -64.3625446,
       45.0905424
      ],
      [
       -64.3625645,
       45.0905412
      ],
      [
       -64.3625772,
       45.0905802
      ],
      [
       -64.3626394,
       45.0908779
      ],
      [
       -64.3626453,
       45.0908961
      ],
      [
       -64.3626549,
       45.0908959
      ],
      [
       -64.3626351,
       45.0909183
      ],
      [
       -64.3626512,
       45.0909321
      ],
      [
       -64.3626914,
       45.0911444
      ],
      [
       -64.3626985,
       45.0911665
      ],
      [
       -64.3627136,
       45.0911654
      ],
      [
       -64.362717,
       45.0911758
      ],
      [
       -64.3627004,
       45.091184
      ],
      [
       -64.3627226,
       45.0912584
      ],
      [
       -64.3627109,
       45.091261
      ],
      [
       -64.3625446,
       45.0905424
      ]
     ]
    ]
   },
   "properties": {
    "kind": "area",
    "category": "All Day Parking",
    "name": "All Day Parking - Linden Avenue (2)",
    "color": "#ea3e82",
    "area_m2": 115,
    "street": "Linden Avenue",
    "street_distance_m": 0.0
   }
  },
  {
   "type": "Feature",
   "geometry": {
    "type": "Polygon",
    "coordinates": [
     [
      [
       -64.3627364,
       45.0908942
      ],
      [
       -64.3627802,
       45.090898
      ],
      [
       -64.3633752,
       45.0908501
      ],
      [
       -64.363431,
       45.0910127
      ],
      [
       -64.3628791,
       45.0910652
      ],
      [
       -64.3628575,
       45.0910345
      ],
      [
       -64.3627621,
       45.0910501
      ],
      [
       -64.3627364,
       45.0908942
      ]
     ]
    ]
   },
   "properties": {
    "kind": "area",
    "category": "All Day Parking",
    "name": "All Day Parking - Linden Avenue (1)",
    "color": "#ea3e82",
    "area_m2": 958,
    "street": "Linden Avenue",
    "street_distance_m": 5.8
   }
  },
  {
   "type": "Feature",
   "geometry": {
    "type": "Polygon",
    "coordinates": [
     [
      [
       -64.3597786,
       45.0907589
      ],
      [
       -64.3623519,
       45.0904727
      ],
      [
       -64.3623633,
       45.0904988
      ],
      [
       -64.3597858,
       45.090781
      ],
      [
       -64.3597786,
       45.0907589
      ]
     ]
    ]
   },
   "properties": {
    "kind": "area",
    "category": "All Day Parking",
    "name": "All Day Parking - Summer Street",
    "color": "#ea3e82",
    "area_m2": 581,
    "street": "Summer Street",
    "street_distance_m": 5.4
   }
  },
  {
   "type": "Feature",
   "geometry": {
    "type": "Polygon",
    "coordinates": [
     [
      [
       -64.3623084,
       45.0897395
      ],
      [
       -64.3623304,
       45.0897448
      ],
      [
       -64.362346,
       45.0897929
      ],
      [
       -64.3624709,
       45.0902952
      ],
      [
       -64.3624482,
       45.0902996
      ],
      [
       -64.3623084,
       45.0897395
      ]
     ]
    ]
   },
   "properties": {
    "kind": "area",
    "category": "All Day Parking",
    "name": "All Day Parking - Linden Avenue (3)",
    "color": "#ea3e82",
    "area_m2": 113,
    "street": "Linden Avenue",
    "street_distance_m": 2.2
   }
  },
  {
   "type": "Feature",
   "geometry": {
    "type": "Polygon",
    "coordinates": [
     [
      [
       -64.3564982,
       45.0909622
      ],
      [
       -64.3565731,
       45.0909521
      ],
      [
       -64.3565508,
       45.0910734
      ],
      [
       -64.3564771,
       45.0910875
      ],
      [
       -64.3564982,
       45.0909622
      ]
     ]
    ]
   },
   "properties": {
    "kind": "area",
    "category": "All Day Parking",
    "name": "All Day Parking - Willow Avenue (3)",
    "color": "#ea3e82",
    "area_m2": 81,
    "street": "Willow Avenue",
    "street_distance_m": 0.5
   }
  },
  {
   "type": "Feature",
   "geometry": {
    "type": "Polygon",
    "coordinates": [
     [
      [
       -64.3565734,
       45.0906708
      ],
      [
       -64.3566428,
       45.0906793
      ],
      [
       -64.3566274,
       45.090727
      ],
      [
       -64.356599,
       45.090809
      ],
      [
       -64.3565219,
       45.0908215
      ],
      [
       -64.3565734,
       45.0906708
      ]
     ]
    ]
   },
   "properties": {
    "kind": "area",
    "category": "All Day Parking",
    "name": "All Day Parking - Willow Avenue (2)",
    "color": "#ea3e82",
    "area_m2": 89,
    "street": "Willow Avenue",
    "street_distance_m": 0.4
   }
  },
  {
   "type": "Feature",
   "geometry": {
    "type": "Polygon",
    "coordinates": [
     [
      [
       -64.3566961,
       45.0903593
      ],
      [
       -64.3567692,
       45.0903672
      ],
      [
       -64.3567024,
       45.0905389
      ],
      [
       -64.3566427,
       45.0905247
      ],
      [
       -64.3566961,
       45.0903593
      ]
     ]
    ]
   },
   "properties": {
    "kind": "area",
    "category": "All Day Parking",
    "name": "All Day Parking - Willow Avenue (1)",
    "color": "#ea3e82",
    "area_m2": 105,
    "street": "Willow Avenue",
    "street_distance_m": 0.0
   }
  },
  {
   "type": "Feature",
   "geometry": {
    "type": "Point",
    "coordinates": [
     -64.3657426,
     45.0927237
    ]
   },
   "properties": {
    "kind": "poi",
    "category": "Accessible Parking",
    "name": "Accessible Parking - Dykeland Street",
    "street": "Dykeland Street",
    "street_distance_m": 78.1
   }
  },
  {
   "type": "Feature",
   "geometry": {
    "type": "Point",
    "coordinates": [
     -64.3624093,
     45.0927647
    ]
   },
   "properties": {
    "kind": "poi",
    "category": "Accessible Parking",
    "name": "Accessible Parking - Front Street (2)",
    "street": "Front Street",
    "street_distance_m": 67.3
   }
  },
  {
   "type": "Feature",
   "geometry": {
    "type": "Point",
    "coordinates": [
     -64.3637074,
     45.0925499
    ]
   },
   "properties": {
    "kind": "poi",
    "category": "Accessible Parking",
    "name": "Accessible Parking - Elm Avenue (2)",
    "street": "Elm Avenue",
    "street_distance_m": 22.2
   }
  },
  {
   "type": "Feature",
   "geometry": {
    "type": "Point",
    "coordinates": [
     -64.3637769,
     45.0923716
    ]
   },
   "properties": {
    "kind": "poi",
    "category": "Accessible Parking",
    "name": "Accessible Parking - Elm Avenue (1)",
    "street": "Elm Avenue",
    "street_distance_m": 12.4
   }
  },
  {
   "type": "Feature",
   "geometry": {
    "type": "Point",
    "coordinates": [
     -64.3633628,
     45.0923955
    ]
   },
   "properties": {
    "kind": "poi",
    "category": "Accessible Parking",
    "name": "Accessible Parking - Front Street (1)",
    "street": "Front Street",
    "street_distance_m": 36.8
   }
  },
  {
   "type": "Feature",
   "geometry": {
    "type": "Point",
    "coordinates": [
     -64.3597916,
     45.0926708
    ]
   },
   "properties": {
    "kind": "poi",
    "category": "Accessible Parking",
    "name": "Accessible Parking - Harbourside Drive",
    "street": "Harbourside Drive",
    "street_distance_m": 11.1
   }
  },
  {
   "type": "Feature",
   "geometry": {
    "type": "Point",
    "coordinates": [
     -64.3612262,
     45.0922054
    ]
   },
   "properties": {
    "kind": "poi",
    "category": "Accessible Parking",
    "name": "Accessible Parking - Front Street (3)",
    "street": "Front Street",
    "street_distance_m": 5.9
   }
  },
  {
   "type": "Feature",
   "geometry": {
    "type": "Point",
    "coordinates": [
     -64.363351,
     45.0913959
    ]
   },
   "properties": {
    "kind": "poi",
    "category": "Accessible Parking",
    "name": "Accessible Parking - Main Street (2)",
    "street": "Main Street",
    "street_distance_m": 5.8
   }
  },
  {
   "type": "Feature",
   "geometry": {
    "type": "Point",
    "coordinates": [
     -64.3625429,
     45.0914896
    ]
   },
   "properties": {
    "kind": "poi",
    "category": "Accessible Parking",
    "name": "Accessible Parking - Main Street (4)",
    "street": "Main Street",
    "street_distance_m": 7.1
   }
  },
  {
   "type": "Feature",
   "geometry": {
    "type": "Point",
    "coordinates": [
     -64.3629728,
     45.0913619
    ]
   },
   "properties": {
    "kind": "poi",
    "category": "Accessible Parking",
    "name": "Accessible Parking - Main Street (3)",
    "street": "Main Street",
    "street_distance_m": 2.2
   }
  },
  {
   "type": "Feature",
   "geometry": {
    "type": "Point",
    "coordinates": [
     -64.3635302,
     45.0912462
    ]
   },
   "properties": {
    "kind": "poi",
    "category": "Accessible Parking",
    "name": "Accessible Parking - Main Street (1)",
    "street": "Main Street",
    "street_distance_m": 8.7
   }
  },
  {
   "type": "Feature",
   "geometry": {
    "type": "Point",
    "coordinates": [
     -64.3611169,
     45.0916322
    ]
   },
   "properties": {
    "kind": "poi",
    "category": "Accessible Parking",
    "name": "Accessible Parking - Main Street (7)",
    "street": "Main Street",
    "street_distance_m": 6.7
   }
  },
  {
   "type": "Feature",
   "geometry": {
    "type": "Point",
    "coordinates": [
     -64.3600802,
     45.0917359
    ]
   },
   "properties": {
    "kind": "poi",
    "category": "Accessible Parking",
    "name": "Accessible Parking - Main Street (9)",
    "street": "Main Street",
    "street_distance_m": 6.4
   }
  },
  {
   "type": "Feature",
   "geometry": {
    "type": "Point",
    "coordinates": [
     -64.3606795,
     45.0915942
    ]
   },
   "properties": {
    "kind": "poi",
    "category": "Accessible Parking",
    "name": "Accessible Parking - Main Street (8)",
    "street": "Main Street",
    "street_distance_m": 2.7
   }
  },
  {
   "type": "Feature",
   "geometry": {
    "type": "Point",
    "coordinates": [
     -64.3621949,
     45.0912043
    ]
   },
   "properties": {
    "kind": "poi",
    "category": "Accessible Parking",
    "name": "Accessible Parking - Main Street (5)",
    "street": "Main Street",
    "street_distance_m": 28.0
   }
  },
  {
   "type": "Feature",
   "geometry": {
    "type": "Point",
    "coordinates": [
     -64.3619567,
     45.0912323
    ]
   },
   "properties": {
    "kind": "poi",
    "category": "Accessible Parking",
    "name": "Accessible Parking - Main Street (6)",
    "street": "Main Street",
    "street_distance_m": 27.3
   }
  },
  {
   "type": "Feature",
   "geometry": {
    "type": "Point",
    "coordinates": [
     -64.3628108,
     45.09109
    ]
   },
   "properties": {
    "kind": "poi",
    "category": "Accessible Parking",
    "name": "Accessible Parking - Linden Avenue",
    "street": "Linden Avenue",
    "street_distance_m": 8.8
   }
  },
  {
   "type": "Feature",
   "geometry": {
    "type": "Point",
    "coordinates": [
     -64.3583463,
     45.0918111
    ]
   },
   "properties": {
    "kind": "poi",
    "category": "Accessible Parking",
    "name": "Accessible Parking - Main Street (10)",
    "street": "Main Street",
    "street_distance_m": 2.5
   }
  },
  {
   "type": "Feature",
   "geometry": {
    "type": "Point",
    "coordinates": [
     -64.3595938,
     45.0915595
    ]
   },
   "properties": {
    "kind": "poi",
    "category": "Accessible Parking",
    "name": "Accessible Parking - Gaspereau Avenue",
    "street": "Gaspereau Avenue",
    "street_distance_m": 14.6
   }
  },
  {
   "type": "Feature",
   "geometry": {
    "type": "Point",
    "coordinates": [
     -64.3577184,
     45.091651
    ]
   },
   "properties": {
    "kind": "poi",
    "category": "Accessible Parking",
    "name": "Accessible Parking - Seaview Avenue",
    "street": "Seaview Avenue",
    "street_distance_m": 4.5
   }
  },
  {
   "type": "Feature",
   "geometry": {
    "type": "Point",
    "coordinates": [
     -64.3565033,
     45.091153
    ]
   },
   "properties": {
    "kind": "poi",
    "category": "Accessible Parking",
    "name": "Accessible Parking - Willow Avenue (2)",
    "street": "Willow Avenue",
    "street_distance_m": 4.4
   }
  },
  {
   "type": "Feature",
   "geometry": {
    "type": "Point",
    "coordinates": [
     -64.3565495,
     45.0908854
    ]
   },
   "properties": {
    "kind": "poi",
    "category": "Accessible Parking",
    "name": "Accessible Parking - Willow Avenue (1)",
    "street": "Willow Avenue",
    "street_distance_m": 3.0
   }
  },
  {
   "type": "Feature",
   "geometry": {
    "type": "Point",
    "coordinates": [
     -64.361395,
     45.0896137
    ]
   },
   "properties": {
    "kind": "poi",
    "category": "Accessible Parking",
    "name": "Accessible Parking - Acadia Street",
    "street": "Acadia Street",
    "street_distance_m": 4.8
   }
  },
  {
   "type": "Feature",
   "geometry": {
    "type": "Point",
    "coordinates": [
     -64.3598638,
     45.0925908
    ]
   },
   "properties": {
    "kind": "poi",
    "category": "Loading Zone",
    "name": "Loading Zone - Harbourside Drive",
    "street": "Harbourside Drive",
    "street_distance_m": 4.3
   }
  },
  {
   "type": "Feature",
   "geometry": {
    "type": "Point",
    "coordinates": [
     -64.3621454,
     45.0922154
    ]
   },
   "properties": {
    "kind": "poi",
    "category": "Loading Zone",
    "name": "Loading Zone - Front Street (1)",
    "street": "Front Street",
    "street_distance_m": 4.2
   }
  },
  {
   "type": "Feature",
   "geometry": {
    "type": "Point",
    "coordinates": [
     -64.361455,
     45.0922789
    ]
   },
   "properties": {
    "kind": "poi",
    "category": "Loading Zone",
    "name": "Loading Zone - Front Street (2)",
    "street": "Front Street",
    "street_distance_m": 4.6
   }
  },
  {
   "type": "Feature",
   "geometry": {
    "type": "Point",
    "coordinates": [
     -64.3618791,
     45.0918128
    ]
   },
   "properties": {
    "kind": "poi",
    "category": "Loading Zone",
    "name": "Loading Zone - Central Avenue",
    "street": "Central Avenue",
    "street_distance_m": 3.7
   }
  },
  {
   "type": "Feature",
   "geometry": {
    "type": "Point",
    "coordinates": [
     -64.364129,
     45.0912455
    ]
   },
   "properties": {
    "kind": "poi",
    "category": "Loading Zone",
    "name": "Loading Zone - Main Street (1)",
    "street": "Main Street",
    "street_distance_m": 1.7
   }
  },
  {
   "type": "Feature",
   "geometry": {
    "type": "Point",
    "coordinates": [
     -64.3627931,
     45.0912256
    ]
   },
   "properties": {
    "kind": "poi",
    "category": "Loading Zone",
    "name": "Loading Zone - Linden Avenue",
    "street": "Linden Avenue",
    "street_distance_m": 4.9
   }
  },
  {
   "type": "Feature",
   "geometry": {
    "type": "Point",
    "coordinates": [
     -64.3585062,
     45.0917918
    ]
   },
   "properties": {
    "kind": "poi",
    "category": "Loading Zone",
    "name": "Loading Zone - Main Street (2)",
    "street": "Main Street",
    "street_distance_m": 3.7
   }
  },
  {
   "type": "Feature",
   "geometry": {
    "type": "Point",
    "coordinates": [
     -64.362128,
     45.0913282
    ]
   },
   "properties": {
    "kind": "poi",
    "category": "Bus Stop",
    "name": "Bus Stop - Main Street (1)",
    "street": "Main Street",
    "street_distance_m": 15.0
   }
  },
  {
   "type": "Feature",
   "geometry": {
    "type": "Point",
    "coordinates": [
     -64.3561303,
     45.0919958
    ]
   },
   "properties": {
    "kind": "poi",
    "category": "Bus Stop",
    "name": "Bus Stop - Main Street (2)",
    "street": "Main Street",
    "street_distance_m": 4.5
   }
  },
  {
   "type": "Feature",
   "geometry": {
    "type": "Point",
    "coordinates": [
     -64.364207,
     45.0906245
    ]
   },
   "properties": {
    "kind": "poi",
    "category": "Bus Stop",
    "name": "Bus Stop - Highland Avenue",
    "street": "Highland Avenue",
    "street_distance_m": 7.6
   }
  },
  {
   "type": "Feature",
   "geometry": {
    "type": "Point",
    "coordinates": [
     -64.3560935,
     45.0918472
    ]
   },
   "properties": {
    "kind": "poi",
    "category": "Bus Stop",
    "name": "Bus Stop - Main Street (3)",
    "street": "Main Street",
    "street_distance_m": 11.9
   }
  }
 ]
}